SL-16 R/B               
1 22803U 93059B   26108.21404637 -.00000171  00000+0 -60701-4 0  9993
2 22803  70.9892 287.7770 0016180 157.0842 203.1007 14.17239106685133
ARIANE 40 R/B           
1 22830U 93061H   26108.15255112  .00000128  00000+0  62554-4 0  9999
2 22830  98.4853 176.2477 0011212 161.6451 198.5140 14.32881283699753
COSMOS 2278             
1 23087U 94023A   26108.13223994  .00000338  00000+0  20102-3 0  9999
2 23087  71.0516  92.5745 0009976 317.7531  42.2822 14.14382141650383
SL-16 R/B               
1 23088U 94023B   26108.09018861 -.00000256  00000+0 -10761-3 0  9991
2 23088  71.0016 348.1445 0005487 251.1753 108.8775 14.15017615651666
SL-16 R/B               
1 23343U 94074B   26108.08974112  .00000279  00000+0  44015-4 0  9993
2 23343  97.7050 137.3011 0008112  93.0220 330.4300 14.79450528693072
SL-16 R/B               
1 23405U 94077B   26108.19779001  .00000235  00000+0  14473-3 0  9993
2 23405  70.9814 269.3687 0000903 151.9472 208.1699 14.15568515621822
ARIANE 40+ R/B          
1 23561U 95021B   26108.14493515  .00000174  00000+0  69335-4 0  9994
2 23561  98.4437 179.0801 0007197  33.8207 356.2302 14.39799563624927
SL-16 R/B               
1 23705U 95058B   26108.20669995  .00000151  00000+0  10166-3 0  9990
2 23705  71.0198  97.2890 0010698  52.9661 307.2439 14.15504430573441
SL-16 R/B               
1 24298U 96051B   26108.18833044  .00000023  00000+0  39092-4 0  9995
2 24298  70.7587  91.6343 0012571  80.5472 279.7068 14.12425809527222
ORBVIEW 2 (SEASTAR)     
1 24883U 97037A   26108.21736640  .00000151  00000+0  68701-4 0  9999
2 24883  98.8632 273.5905 0001342 326.9023  33.2078 14.35521396514146
SL-16 R/B               
1 25400U 98043G   26108.16327309  .00000019  00000+0  27159-4 0  9990
2 25400  98.8318  61.8230 0008743 259.2391 100.7805 14.26058509444613
SL-16 R/B               
1 25407U 98045B   26108.26883733 -.00000103  00000+0 -27868-4 0  9991
2 25407  71.0093  98.3390 0009071 312.4639  47.5717 14.16199079432701
ISS (ZARYA)             
1 25544U 98067A   26108.07046201  .00007259  00000+0  14069-3 0  9992
2 25544  51.6329 237.6272 0006576 320.1418  39.9086 15.48808425562430
CZ-4B R/B               
1 25732U 99025C   26108.09517369  .00000038  00000+0  39385-4 0  9993
2 25732  98.6550 151.4286 0036254 230.3857 156.4279 14.18272952393751
OKEAN-O                 
1 25860U 99039A   26108.12565995  .00000387  00000+0  57517-4 0  9996
2 25860  97.9367 167.6003 0001298 115.5896 244.5450 14.80394690440222
SL-16 R/B               
1 25861U 99039B   26108.20359357  .00000336  00000+0  49305-4 0  9999
2 25861  97.9890 167.2247 0015936 126.4112 233.8573 14.81783058442710
DELTA 2 R/B             
1 25876U 99041E   26108.08345071  .00000175  00000+0  68608-4 0  9990
2 25876  51.7598 143.9056 0502525 104.5958 261.1232 14.11919502368595
