[{"OBJECT_NAME":"SL-16 R/B","OBJECT_ID":"1993-059B","EPOCH":"2026-04-18T05:08:13.606368","MEAN_MOTION":14.17239106,"ECCENTRICITY":0.00161802,"INCLINATION":70.9892,"RA_OF_ASC_NODE":287.777,"ARG_OF_PERICENTER":157.0842,"MEAN_ANOMALY":203.1007,"EPHEMERIS_TYPE":0,"CLASSIFICATION_TYPE":"U","NORAD_CAT_ID":22803,"ELEMENT_SET_NO":999,"REV_AT_EPOCH":68513,"BSTAR":-6.0700767e-5,"MEAN_MOTION_DOT":-1.71e-6,"MEAN_MOTION_DDOT":0},{"OBJECT_NAME":"ARIANE 40 R/B","OBJECT_ID":"1993-061H","EPOCH":"2026-04-18T03:39:40.416768","MEAN_MOTION":14.32881283,"ECCENTRICITY":0.00112123,"INCLINATION":98.4853,"RA_OF_ASC_NODE":176.2477,"ARG_OF_PERICENTER":161.6451,"MEAN_ANOMALY":198.514,"EPHEMERIS_TYPE":0,"CLASSIFICATION_TYPE":"U","NORAD_CAT_ID":22830,"ELEMENT_SET_NO":999,"REV_AT_EPOCH":69975,"BSTAR":6.2554269e-5,"MEAN_MOTION_DOT":1.28e-6,"MEAN_MOTION_DDOT":0},{"OBJECT_NAME":"COSMOS 2278","OBJECT_ID":"1994-023A","EPOCH":"2026-04-18T03:10:25.530816","MEAN_MOTION":14.14382141,"ECCENTRICITY":0.00099767,"INCLINATION":71.0516,"RA_OF_ASC_NODE":92.5745,"ARG_OF_PERICENTER":317.7531,"MEAN_ANOMALY":42.2822,"EPHEMERIS_TYPE":0,"CLASSIFICATION_TYPE":"U","NORAD_CAT_ID":23087,"ELEMENT_SET_NO":999,"REV_AT_EPOCH":65038,"BSTAR":0.00020102353,"MEAN_MOTION_DOT":3.38e-6,"MEAN_MOTION_DDOT":0},{"OBJECT_NAME":"SL-16 R/B","OBJECT_ID":"1994-023B","EPOCH":"2026-04-18T02:09:52.295904","MEAN_MOTION":14.15017615,"ECCENTRICITY":0.00054877,"INCLINATION":71.0016,"RA_OF_ASC_NODE":348.1445,"ARG_OF_PERICENTER":251.1753,"MEAN_ANOMALY":108.8775,"EPHEMERIS_TYPE":0,"CLASSIFICATION_TYPE":"U","NORAD_CAT_ID":23088,"ELEMENT_SET_NO":999,"REV_AT_EPOCH":65166,"BSTAR":-0.00010761378,"MEAN_MOTION_DOT":-2.56e-6,"MEAN_MOTION_DDOT":0},{"OBJECT_NAME":"SL-16 R/B","OBJECT_ID":"1994-074B","EPOCH":"2026-04-18T02:09:13.632768","MEAN_MOTION":14.79450528,"ECCENTRICITY":0.00081122,"INCLINATION":97.705,"RA_OF_ASC_NODE":137.3011,"ARG_OF_PERICENTER":93.022,"MEAN_ANOMALY":330.43,"EPHEMERIS_TYPE":0,"CLASSIFICATION_TYPE":"U","NORAD_CAT_ID":23343,"ELEMENT_SET_NO":999,"REV_AT_EPOCH":69307,"BSTAR":4.4014614e-5,"MEAN_MOTION_DOT":2.79e-6,"MEAN_MOTION_DDOT":0},{"OBJECT_NAME":"SL-16 R/B","OBJECT_ID":"1994-077B","EPOCH":"2026-04-18T04:44:49.056864","MEAN_MOTION":14.15568515,"ECCENTRICITY":9.039e-5,"INCLINATION":70.9814,"RA_OF_ASC_NODE":269.3687,"ARG_OF_PERICENTER":151.9472,"MEAN_ANOMALY":208.1699,"EPHEMERIS_TYPE":0,"CLASSIFICATION_TYPE":"U","NORAD_CAT_ID":23405,"ELEMENT_SET_NO":999,"REV_AT_EPOCH":62182,"BSTAR":0.00014473477,"MEAN_MOTION_DOT":2.35e-6,"MEAN_MOTION_DDOT":0},{"OBJECT_NAME":"ARIANE 40+ R/B","OBJECT_ID":"1995-021B","EPOCH":"2026-04-18T03:28:42.396960","MEAN_MOTION":14.39799563,"ECCENTRICITY":0.00071979,"INCLINATION":98.4437,"RA_OF_ASC_NODE":179.0801,"ARG_OF_PERICENTER":33.8207,"MEAN_ANOMALY":356.2302,"EPHEMERIS_TYPE":0,"CLASSIFICATION_TYPE":"U","NORAD_CAT_ID":23561,"ELEMENT_SET_NO":999,"REV_AT_EPOCH":62492,"BSTAR":6.9334605e-5,"MEAN_MOTION_DOT":1.74e-6,"MEAN_MOTION_DDOT":0},{"OBJECT_NAME":"SL-16 R/B","OBJECT_ID":"1995-058B","EPOCH":"2026-04-18T04:57:38.875680","MEAN_MOTION":14.1550443,"ECCENTRICITY":0.00106987,"INCLINATION":71.0198,"RA_OF_ASC_NODE":97.289,"ARG_OF_PERICENTER":52.9661,"MEAN_ANOMALY":307.2439,"EPHEMERIS_TYPE":0,"CLASSIFICATION_TYPE":"U","NORAD_CAT_ID":23705,"ELEMENT_SET_NO":999,"REV_AT_EPOCH":57344,"BSTAR":0.00010165698,"MEAN_MOTION_DOT":1.51e-6,"MEAN_MOTION_DDOT":0},{"OBJECT_NAME":"SL-16 R/B","OBJECT_ID":"1996-051B","EPOCH":"2026-04-18T04:31:11.750016","MEAN_MOTION":14.12425809,"ECCENTRICITY":0.00125713,"INCLINATION":70.7587,"RA_OF_ASC_NODE":91.6343,"ARG_OF_PERICENTER":80.5472,"MEAN_ANOMALY":279.7068,"EPHEMERIS_TYPE":0,"CLASSIFICATION_TYPE":"U","NORAD_CAT_ID":24298,"ELEMENT_SET_NO":999,"REV_AT_EPOCH":52722,"BSTAR":3.9091896e-5,"MEAN_MOTION_DOT":2.3e-7,"MEAN_MOTION_DDOT":0},{"OBJECT_NAME":"ORBVIEW 2 (SEASTAR)","OBJECT_ID":"1997-037A","EPOCH":"2026-04-18T05:13:00.456960","MEAN_MOTION":14.35521396,"ECCENTRICITY":0.0001342,"INCLINATION":98.8632,"RA_OF_ASC_NODE":273.5905,"ARG_OF_PERICENTER":326.9023,"MEAN_ANOMALY":33.2078,"EPHEMERIS_TYPE":0,"CLASSIFICATION_TYPE":"U","NORAD_CAT_ID":24883,"ELEMENT_SET_NO":999,"REV_AT_EPOCH":51414,"BSTAR":6.8701042e-5,"MEAN_MOTION_DOT":1.51e-6,"MEAN_MOTION_DDOT":0},{"OBJECT_NAME":"SL-16 R/B","OBJECT_ID":"1998-043G","EPOCH":"2026-04-18T03:55:06.794976","MEAN_MOTION":14.26058509,"ECCENTRICITY":0.00087434,"INCLINATION":98.8318,"RA_OF_ASC_NODE":61.823,"ARG_OF_PERICENTER":259.2391,"MEAN_ANOMALY":100.7805,"EPHEMERIS_TYPE":0,"CLASSIFICATION_TYPE":"U","NORAD_CAT_ID":25400,"ELEMENT_SET_NO":999,"REV_AT_EPOCH":44461,"BSTAR":2.7158676e-5,"MEAN_MOTION_DOT":1.9e-7,"MEAN_MOTION_DDOT":0},{"OBJECT_NAME":"SL-16 R/B","OBJECT_ID":"1998-045B","EPOCH":"2026-04-18T06:27:07.545312","MEAN_MOTION":14.16199079,"ECCENTRICITY":0.00090716,"INCLINATION":71.0093,"RA_OF_ASC_NODE":98.339,"ARG_OF_PERICENTER":312.4639,"MEAN_ANOMALY":47.5717,"EPHEMERIS_TYPE":0,"CLASSIFICATION_TYPE":"U","NORAD_CAT_ID":25407,"ELEMENT_SET_NO":999,"REV_AT_EPOCH":43270,"BSTAR":-2.7868479e-5,"MEAN_MOTION_DOT":-1.03e-6,"MEAN_MOTION_DDOT":0},{"OBJECT_NAME":"ISS (ZARYA)","OBJECT_ID":"1998-067A","EPOCH":"2026-04-18T01:41:27.917664","MEAN_MOTION":15.48808425,"ECCENTRICITY":0.00065768,"INCLINATION":51.6329,"RA_OF_ASC_NODE":237.6272,"ARG_OF_PERICENTER":320.1418,"MEAN_ANOMALY":39.9086,"EPHEMERIS_TYPE":0,"CLASSIFICATION_TYPE":"U","NORAD_CAT_ID":25544,"ELEMENT_SET_NO":999,"REV_AT_EPOCH":56243,"BSTAR":0.00014068517,"MEAN_MOTION_DOT":7.259e-5,"MEAN_MOTION_DDOT":0},{"OBJECT_NAME":"CZ-4B R/B","OBJECT_ID":"1999-025C","EPOCH":"2026-04-18T02:17:03.006816","MEAN_MOTION":14.18272952,"ECCENTRICITY":0.0036254,"INCLINATION":98.655,"RA_OF_ASC_NODE":151.4286,"ARG_OF_PERICENTER":230.3857,"MEAN_ANOMALY":156.4279,"EPHEMERIS_TYPE":0,"CLASSIFICATION_TYPE":"U","NORAD_CAT_ID":25732,"ELEMENT_SET_NO":999,"REV_AT_EPOCH":39375,"BSTAR":3.9384518e-5,"MEAN_MOTION_DOT":3.8e-7,"MEAN_MOTION_DDOT":0},{"OBJECT_NAME":"OKEAN-O","OBJECT_ID":"1999-039A","EPOCH":"2026-04-18T03:00:57.019680","MEAN_MOTION":14.8039469,"ECCENTRICITY":0.00012988,"INCLINATION":97.9367,"RA_OF_ASC_NODE":167.6003,"ARG_OF_PERICENTER":115.5896,"MEAN_ANOMALY":244.545,"EPHEMERIS_TYPE":0,"CLASSIFICATION_TYPE":"U","NORAD_CAT_ID":25860,"ELEMENT_SET_NO":999,"REV_AT_EPOCH":44022,"BSTAR":5.7516802e-5,"MEAN_MOTION_DOT":3.87e-6,"MEAN_MOTION_DDOT":0},{"OBJECT_NAME":"SL-16 R/B","OBJECT_ID":"1999-039B","EPOCH":"2026-04-18T04:53:10.484448","MEAN_MOTION":14.81783058,"ECCENTRICITY":0.00159363,"INCLINATION":97.989,"RA_OF_ASC_NODE":167.2247,"ARG_OF_PERICENTER":126.4112,"MEAN_ANOMALY":233.8573,"EPHEMERIS_TYPE":0,"CLASSIFICATION_TYPE":"U","NORAD_CAT_ID":25861,"ELEMENT_SET_NO":999,"REV_AT_EPOCH":44271,"BSTAR":4.9305337e-5,"MEAN_MOTION_DOT":3.36e-6,"MEAN_MOTION_DDOT":0},{"OBJECT_NAME":"DELTA 2 R/B","OBJECT_ID":"1999-041E","EPOCH":"2026-04-18T02:00:10.141344","MEAN_MOTION":14.11919502,"ECCENTRICITY":0.05025252,"INCLINATION":51.7598,"RA_OF_ASC_NODE":143.9056,"ARG_OF_PERICENTER":104.5958,"MEAN_ANOMALY":261.1232,"EPHEMERIS_TYPE":0,"CLASSIFICATION_TYPE":"U","NORAD_CAT_ID":25876,"ELEMENT_SET_NO":999,"REV_AT_EPOCH":36859,"BSTAR":6.8608184e-5,"MEAN_MOTION_DOT":1.75e-6,"MEAN_MOTION_DDOT":0}]
